GLOBALSTAR M075         
1 37192U 10054E   25215.50875728 -.00000094  00000+0  56340-4 0  9994
2 37192  51.9958  37.4529 0000821  82.4535 306.6033 12.62266438682354
GLOBALSTAR M073         
1 37193U 10054F   25215.51729806 -.00000094  00000+0  51974-4 0  9999
2 37193  52.0081 311.2839 0000743 103.1820 325.2481 12.62261476683860
GLOBALSTAR M083         
1 37739U 11033A   25215.55208150 -.00000083  00000+0  11598-3 0  9996
2 37739  51.9843 259.8474 0000273  97.1427  67.3019 12.62275057653199
GLOBALSTAR M088         
1 37740U 11033B   25214.86159472 -.00000087  00000+0  92749-4 0  9995
2 37740  52.0201 167.6009 0000241  21.5675   4.8540 12.62267098648580
GLOBALSTAR M091         
1 37741U 11033C   25214.27268208 -.00000096  00000+0  42457-4 0  9990
2 37741  51.9993 132.8286 0000593  20.5167 149.3700 12.62269569649009
GLOBALSTAR M085         
1 37742U 11033D   25214.70646370 -.00000109  00000+0 -30723-4 0  9998
2 37742  52.0127  82.5219 0000776  46.0650 356.3757 12.62263940650068
GLOBALSTAR M081         
1 37743U 11033E   25215.59940237 -.00000102  00000+0  11670-4 0  9998
2 37743  51.9958  82.6041 0000924  58.2351 322.2738 12.62267317650211
GLOBALSTAR M089         
1 37744U 11033F   25215.47986988 -.00000093  00000+0  58742-4 0  9999
2 37744  51.9941  37.1849 0001005  97.1820 280.9741 12.62265640650917
